[{"OBJECT_NAME":"RISAT-2BR2","OBJECT_ID":"2020-081A","EPOCH":"2026-03-09T12:34:56.452800","MEAN_MOTION":15.01602463,"ECCENTRICITY":0.00109054,"INCLINATION":36.898,"RA_OF_ASC_NODE":95.9121,"ARG_OF_PERICENTER":52.9142,"MEAN_ANOMALY":307.2595,"EPHEMERIS_TYPE":0,"CLASSIFICATION_TYPE":"U","NORAD_CAT_ID":46905,"ELEMENT_SET_NO":999,"REV_AT_EPOCH":29248,"BSTAR":0.00037609291,"MEAN_MOTION_DOT":4.901e-5,"MEAN_MOTION_DDOT":0},{"OBJECT_NAME":"STARLINK-4368","OBJECT_ID":"2022-084AX","EPOCH":"2026-03-09T17:11:24.509760","MEAN_MOTION":15.01259518,"ECCENTRICITY":8.915e-5,"INCLINATION":97.6053,"RA_OF_ASC_NODE":130.2359,"ARG_OF_PERICENTER":123.5095,"MEAN_ANOMALY":236.6214,"EPHEMERIS_TYPE":0,"CLASSIFICATION_TYPE":"U","NORAD_CAT_ID":53234,"ELEMENT_SET_NO":999,"REV_AT_EPOCH":20033,"BSTAR":5.1278105e-5,"MEAN_MOTION_DOT":6.0e-6,"MEAN_MOTION_DDOT":0}]
